{
"type": "FeatureCollection",
"name": "Name_Heartland Air Monitoring Partnership",
"crs": { "type": "name", "properties": { "name": "urn:ogc:def:crs:OGC:1.3:CRS84" } },
"xy_coordinate_resolution": 1e-15,
"features": [
{ "type": "Feature", "properties": { "Name": "Heartland Air Monitoring Partnership", "description": "<html xmlns:fo=\"http://www.w3.org/1999/XSL/Format\" xmlns:msxsl=\"urn:schemas-microsoft-com:xslt\">\n\n<head>\n\n<META http-equiv=\"Content-Type\" content=\"text/html\">\n\n<meta http-equiv=\"content-type\" content=\"text/html; charset=UTF-8\">\n\n</head>\n\n<body style=\"margin:0px 0px 0px 0px;overflow:auto;background:#FFFFFF;\">\n\n<table style=\"font-family:Arial,Verdana,Times;font-size:12px;text-align:left;width:100%;border-collapse:collapse;padding:3px 3px 3px 3px\">\n\n<tr style=\"text-align:center;font-weight:bold;background:#9CBCE2\">\n\n<td>Heartland Air Monitoring Partnership</td>\n\n</tr>\n\n<tr>\n\n<td>\n\n<table style=\"font-family:Arial,Verdana,Times;font-size:12px;text-align:left;width:100%;border-spacing:0px; padding:3px 3px 3px 3px\">\n\n<tr>\n\n<td>FID</td>\n\n<td>1</td>\n\n</tr>\n\n<tr bgcolor=\"#D4E4F3\">\n\n<td>Name</td>\n\n<td>Heartland Air Monitoring Partnership</td>\n\n</tr>\n\n<tr>\n\n<td>Abrreviati</td>\n\n<td>HAMP</td>\n\n</tr>\n\n<tr bgcolor=\"#D4E4F3\">\n\n<td>YrCreated</td>\n\n<td>1997</td>\n\n</tr>\n\n<tr>\n\n<td>Shape_Leng</td>\n\n<td>294662.734463</td>\n\n</tr>\n\n<tr bgcolor=\"#D4E4F3\">\n\n<td>Shape_Le_1</td>\n\n<td>294662.734463</td>\n\n</tr>\n\n</table>\n\n</td>\n\n</tr>\n\n</table>\n\n</body><script type=\"text/javascript\">\n\n\t\t\t\tfunction changeImage(attElement, nameElement) {\n\n\t\t\t\tdocument.getElementById('imageAttachment').src = attElement;\n\n\t\t\t\tdocument.getElementById('imageName').innerHTML = nameElement;}\n\n\t\t\t</script></html>\n\n", "timestamp": null, "begin": null, "end": null, "altitudeMode": "clampToGround", "tessellate": -1, "extrude": 0, "visibility": -1, "drawOrder": null, "icon": null }, "geometry": { "type": "MultiPolygon", "coordinates": [ [ [ [ -112.656826696496793, 54.183192008693162, 0.0 ], [ -112.657033969764399, 54.326521216363403, 0.0 ], [ -112.851639432139606, 54.326587881818782, 0.0 ], [ -113.000297082911302, 54.326603667876647, 0.0 ], [ -113.152012609959797, 54.327265301567053, 0.0 ], [ -113.300066180399099, 54.327243904639687, 0.0 ], [ -113.495991442613203, 54.327197514535342, 0.0 ], [ -113.4959801452883, 54.196596009272973, 0.0 ], [ -113.495950376612996, 54.022486896161737, 0.0 ], [ -113.495821758640702, 54.022487418979303, 0.0 ], [ -113.495433390644493, 53.722272353739847, 0.0 ], [ -113.495699502687003, 53.721676899365313, 0.0 ], [ -113.314517883475503, 53.716468445902642, 0.0 ], [ -113.294571947971093, 53.715878241596208, 0.0 ], [ -113.294572945021201, 53.715794770717203, 0.0 ], [ -113.294768675779196, 53.699361922861677, 0.0 ], [ -113.295085982010093, 53.672670137908142, 0.0 ], [ -113.293494758135694, 53.672923422769962, 0.0 ], [ -113.292648741399503, 53.673058075904308, 0.0 ], [ -113.290312114097404, 53.672769697080362, 0.0 ], [ -113.286206945087997, 53.67361257844793, 0.0 ], [ -113.281241066684998, 53.674353306333778, 0.0 ], [ -113.276999910946699, 53.673890489018717, 0.0 ], [ -113.273536675468506, 53.672938033713947, 0.0 ], [ -113.272933242056396, 53.672295469617652, 0.0 ], [ -113.271655675115696, 53.670934985733062, 0.0 ], [ -113.271116991698804, 53.668911224448593, 0.0 ], [ -113.271666204350396, 53.668485078543981, 0.0 ], [ -113.271661498922796, 53.668397626073123, 0.0 ], [ -113.271641886084595, 53.668323935680583, 0.0 ], [ -113.271662753593901, 53.668307743333443, 0.0 ], [ -113.271739246468897, 53.667874555330037, 0.0 ], [ -113.271827134924493, 53.667540556247879, 0.0 ], [ -113.271991546721793, 53.66722306790917, 0.0 ], [ -113.272173950542395, 53.666959132009829, 0.0 ], [ -113.272402657042093, 53.666712285635171, 0.0 ], [ -113.272853146489894, 53.66637137669683, 0.0 ], [ -113.273227600565505, 53.666022956374221, 0.0 ], [ -113.273548379218994, 53.665801286741072, 0.0 ], [ -113.273933470293301, 53.665650258137617, 0.0 ], [ -113.274335082307701, 53.665525833702851, 0.0 ], [ -113.275396757557104, 53.665020622559489, 0.0 ], [ -113.275739323124299, 53.664900577839553, 0.0 ], [ -113.276020053016893, 53.664802186864897, 0.0 ], [ -113.276594567279005, 53.664626524428101, 0.0 ], [ -113.278836886005607, 53.66318877496181, 0.0 ], [ -113.281695598205204, 53.660073216636981, 0.0 ], [ -113.282750023515106, 53.655406345865948, 0.0 ], [ -113.284261502323204, 53.650661522685787, 0.0 ], [ -113.284320556692506, 53.646344274583463, 0.0 ], [ -113.284844775479797, 53.6457719559575, 0.0 ], [ -113.287495744259303, 53.642877478752958, 0.0 ], [ -113.288143462388405, 53.642531784456501, 0.0 ], [ -113.2909346167053, 53.641042014424293, 0.0 ], [ -113.294897182204707, 53.640129421805078, 0.0 ], [ -113.308390885716506, 53.638939231015478, 0.0 ], [ -113.316103910751096, 53.637636863628167, 0.0 ], [ -113.3174716587951, 53.637038589890508, 0.0 ], [ -113.319161538043005, 53.636299365299351, 0.0 ], [ -113.320159591370597, 53.635862752145293, 0.0 ], [ -113.320374501322803, 53.635637053908077, 0.0 ], [ -113.3223725498775, 53.633538581852328, 0.0 ], [ -113.322362478573297, 53.633511738037548, 0.0 ], [ -113.321708962344204, 53.631769799345207, 0.0 ], [ -113.321275279527399, 53.629834217077232, 0.0 ], [ -113.319864085833004, 53.627690062145312, 0.0 ], [ -113.315332441325296, 53.626167622901633, 0.0 ], [ -113.310339982183507, 53.625299159935857, 0.0 ], [ -113.300576176504904, 53.622769488483911, 0.0 ], [ -113.297230157327704, 53.620657353401583, 0.0 ], [ -113.295689661835098, 53.618407957086283, 0.0 ], [ -113.295396504217706, 53.614543787524489, 0.0 ], [ -113.294744235481801, 53.570800338965768, 0.0 ], [ -112.950980031772801, 53.570980179037818, 0.0 ], [ -112.950979432806307, 53.570446644256528, 0.0 ], [ -112.950934501016206, 53.530906652361871, 0.0 ], [ -112.950870828578402, 53.530906652699429, 0.0 ], [ -112.950856635656393, 53.525623094053259, 0.0 ], [ -112.948460083631204, 53.525460543647831, 0.0 ], [ -112.946724866675694, 53.524904604647787, 0.0 ], [ -112.945596258655499, 53.524287111440522, 0.0 ], [ -112.944720377375802, 53.523462616759538, 0.0 ], [ -112.943240047397296, 53.522645680553858, 0.0 ], [ -112.940826583699405, 53.521763130772143, 0.0 ], [ -112.938323477864401, 53.52123436897773, 0.0 ], [ -112.930251099662698, 53.520096464155017, 0.0 ], [ -112.929571771740399, 53.519882350833122, 0.0 ], [ -112.9285788741348, 53.520072067616759, 0.0 ], [ -112.928017622399693, 53.520404074247658, 0.0 ], [ -112.927460695548703, 53.520488850847713, 0.0 ], [ -112.926430362004396, 53.520453026511149, 0.0 ], [ -112.925750315015193, 53.520283823524252, 0.0 ], [ -112.902483213866404, 53.51847463120081, 0.0 ], [ -112.901611286643003, 53.518005187180862, 0.0 ], [ -112.9010230491225, 53.517221284553372, 0.0 ], [ -112.900812092038294, 53.516713953417977, 0.0 ], [ -112.9002958467551, 53.516417041948927, 0.0 ], [ -112.891039440868894, 53.513178171018147, 0.0 ], [ -112.890069230949607, 53.51279224681177, 0.0 ], [ -112.889783747390695, 53.512710794560419, 0.0 ], [ -112.888973018306004, 53.512534571582613, 0.0 ], [ -112.888443092522706, 53.512462209708829, 0.0 ], [ -112.887348678504694, 53.512375445131653, 0.0 ], [ -112.884135995505105, 53.512138729188969, 0.0 ], [ -112.882204572141703, 53.511915612147632, 0.0 ], [ -112.880285749099102, 53.511643264891539, 0.0 ], [ -112.878863012281002, 53.51139314725026, 0.0 ], [ -112.878293485149996, 53.511293154826838, 0.0 ], [ -112.877565916783595, 53.511266691711249, 0.0 ], [ -112.876901706717604, 53.511313398512101, 0.0 ], [ -112.876501741702995, 53.511351197520128, 0.0 ], [ -112.8758328482471, 53.511492223122069, 0.0 ], [ -112.875527924968907, 53.51159023347784, 0.0 ], [ -112.863994412691895, 53.513992912020328, 0.0 ], [ -112.863601647121797, 53.514093889345872, 0.0 ], [ -112.863272601838403, 53.514146447348331, 0.0 ], [ -112.862648352745396, 53.514198195144601, 0.0 ], [ -112.861935901743095, 53.514190001817568, 0.0 ], [ -112.8612515351832, 53.514092259020103, 0.0 ], [ -112.860586607859005, 53.513904966227251, 0.0 ], [ -112.859985761549197, 53.513642432266742, 0.0 ], [ -112.859676520334503, 53.513452532502242, 0.0 ], [ -112.859311118199201, 53.513185139298812, 0.0 ], [ -112.859043995190007, 53.513072368280604, 0.0 ], [ -112.858427669780099, 53.512971385876313, 0.0 ], [ -112.857689297952405, 53.51303015279354, 0.0 ], [ -112.857170528087195, 53.513254701713471, 0.0 ], [ -112.856845080751597, 53.513536669320551, 0.0 ], [ -112.856699273411706, 53.513884789673249, 0.0 ], [ -112.856500906949194, 53.514205006452258, 0.0 ], [ -112.856156016843201, 53.514576615662783, 0.0 ], [ -112.855636164700897, 53.51496748346478, 0.0 ], [ -112.855044314129898, 53.515262680029728, 0.0 ], [ -112.854427262729502, 53.515485427171058, 0.0 ], [ -112.854085975546695, 53.515582806942781, 0.0 ], [ -112.853281001758702, 53.515716722590511, 0.0 ], [ -112.852792474548494, 53.515757400107738, 0.0 ], [ -112.852365871400295, 53.515691248552187, 0.0 ], [ -112.8519860685754, 53.515549588486003, 0.0 ], [ -112.8517283062248, 53.515355995511527, 0.0 ], [ -112.851427701912996, 53.515251684209787, 0.0 ], [ -112.851018017814098, 53.515221802953207, 0.0 ], [ -112.850773935478401, 53.515239982446147, 0.0 ], [ -112.850370366666795, 53.515331599590702, 0.0 ], [ -112.850199725135397, 53.515387039339522, 0.0 ], [ -112.850026920644197, 53.515464888306191, 0.0 ], [ -112.8404925126557, 53.518395876837779, 0.0 ], [ -112.840057625265999, 53.518491452714521, 0.0 ], [ -112.839477295033703, 53.51857092008165, 0.0 ], [ -112.838878606871802, 53.518600619227477, 0.0 ], [ -112.838357679031503, 53.518586665884762, 0.0 ], [ -112.837867714984895, 53.518523843296492, 0.0 ], [ -112.837509149142505, 53.518413951220438, 0.0 ], [ -112.837178309138295, 53.518192100977977, 0.0 ], [ -112.836671784451497, 53.517895098755332, 0.0 ], [ -112.836189741057495, 53.517657047022219, 0.0 ], [ -112.835626335338901, 53.517417463125163, 0.0 ], [ -112.834999571236807, 53.517190211814132, 0.0 ], [ -112.834356963607505, 53.51701218899322, 0.0 ], [ -112.833870598235194, 53.516890956796118, 0.0 ], [ -112.827931603445904, 53.516414380414773, 0.0 ], [ -112.827480157983203, 53.516365777206637, 0.0 ], [ -112.826772389757195, 53.516172995132408, 0.0 ], [ -112.826181265524298, 53.515874463016033, 0.0 ], [ -112.825717223905798, 53.515506180854629, 0.0 ], [ -112.825530743221094, 53.515282440391793, 0.0 ], [ -112.825268663975393, 53.514832529701287, 0.0 ], [ -112.825043302870299, 53.514652977822408, 0.0 ], [ -112.824779061730695, 53.514490796932243, 0.0 ], [ -112.824271097453106, 53.51425670427875, 0.0 ], [ -112.823588170234203, 53.514059870651167, 0.0 ], [ -112.822867084186299, 53.513889317623978, 0.0 ], [ -112.8220333149672, 53.513743694404603, 0.0 ], [ -112.821120702503094, 53.5136596309246, 0.0 ], [ -112.820330130709905, 53.513645226432168, 0.0 ], [ -112.819337598262294, 53.513694541802657, 0.0 ], [ -112.818577624326295, 53.513779678227593, 0.0 ], [ -112.817841054365701, 53.513910085672208, 0.0 ], [ -112.817252444088993, 53.514043282967691, 0.0 ], [ -112.816624233673096, 53.514225170486547, 0.0 ], [ -112.815935899755104, 53.514369977487753, 0.0 ], [ -112.814672283080498, 53.514472752612868, 0.0 ], [ -112.813157740327796, 53.514526024897357, 0.0 ], [ -112.811732119907404, 53.514522419068328, 0.0 ], [ -112.809726535045399, 53.514400278336957, 0.0 ], [ -112.808644000844495, 53.514344384720673, 0.0 ], [ -112.807961072129899, 53.514345371621509, 0.0 ], [ -112.806360488182904, 53.514423935002633, 0.0 ], [ -112.805536434237993, 53.514548220605363, 0.0 ], [ -112.805030624673094, 53.51466035979162, 0.0 ], [ -112.803390799382399, 53.514913521388877, 0.0 ], [ -112.803517584170706, 53.572122807228787, 0.0 ], [ -112.803517880618202, 53.572258003089978, 0.0 ], [ -112.797582133656903, 53.571173026375938, 0.0 ], [ -112.655794163578193, 53.571130633013553, 0.0 ], [ -112.656826696496793, 54.183192008693162, 0.0 ] ] ] ] } }
]
}
