{
"type": "FeatureCollection",
"name": "Name_Peace River Area Monitoring Program",
"crs": { "type": "name", "properties": { "name": "urn:ogc:def:crs:OGC:1.3:CRS84" } },
"xy_coordinate_resolution": 1e-15,
"features": [
{ "type": "Feature", "properties": { "Name": "Peace River Area Monitoring Program", "description": "<html xmlns:fo=\"http://www.w3.org/1999/XSL/Format\" xmlns:msxsl=\"urn:schemas-microsoft-com:xslt\">\n\n<head>\n\n<META http-equiv=\"Content-Type\" content=\"text/html\">\n\n<meta http-equiv=\"content-type\" content=\"text/html; charset=UTF-8\">\n\n</head>\n\n<body style=\"margin:0px 0px 0px 0px;overflow:auto;background:#FFFFFF;\">\n\n<table style=\"font-family:Arial,Verdana,Times;font-size:12px;text-align:left;width:100%;border-collapse:collapse;padding:3px 3px 3px 3px\">\n\n<tr style=\"text-align:center;font-weight:bold;background:#9CBCE2\">\n\n<td>Peace River Area Monitoring Program</td>\n\n</tr>\n\n<tr>\n\n<td>\n\n<table style=\"font-family:Arial,Verdana,Times;font-size:12px;text-align:left;width:100%;border-spacing:0px; padding:3px 3px 3px 3px\">\n\n<tr>\n\n<td>FID</td>\n\n<td>8</td>\n\n</tr>\n\n<tr bgcolor=\"#D4E4F3\">\n\n<td>Name</td>\n\n<td>Peace River Area Monitoring Program</td>\n\n</tr>\n\n<tr>\n\n<td>Abrreviati</td>\n\n<td>PRAMP</td>\n\n</tr>\n\n<tr bgcolor=\"#D4E4F3\">\n\n<td>YrCreated</td>\n\n<td>2016</td>\n\n</tr>\n\n<tr>\n\n<td>Shape_Leng</td>\n\n<td>1010461.40564</td>\n\n</tr>\n\n<tr bgcolor=\"#D4E4F3\">\n\n<td>Shape_Le_1</td>\n\n<td>1010461.40564</td>\n\n</tr>\n\n</table>\n\n</td>\n\n</tr>\n\n</table>\n\n</body><script type=\"text/javascript\">\n\n\t\t\t\tfunction changeImage(attElement, nameElement) {\n\n\t\t\t\tdocument.getElementById('imageAttachment').src = attElement;\n\n\t\t\t\tdocument.getElementById('imageName').innerHTML = nameElement;}\n\n\t\t\t</script></html>\n\n", "timestamp": null, "begin": null, "end": null, "altitudeMode": "clampToGround", "tessellate": -1, "extrude": 0, "visibility": -1, "drawOrder": null, "icon": null }, "geometry": { "type": "MultiPolygon", "coordinates": [ [ [ [ -114.970667899613602, 57.380338999759758, 0.0 ], [ -115.998651398173493, 57.384434142612271, 0.0 ], [ -117.111202729453794, 57.379136955901537, 0.0 ], [ -118.163919242440201, 57.377687313590101, 0.0 ], [ -118.161875386429898, 56.42091934380641, 0.0 ], [ -118.000773617595598, 56.422844875652821, 0.0 ], [ -118.000774607235599, 56.422039417606257, 0.0 ], [ -118.000774817667306, 56.421858955740717, 0.0 ], [ -118.000780449131895, 56.418252916956703, 0.0 ], [ -118.000786099050899, 56.414646870780309, 0.0 ], [ -118.000789826576806, 56.411038151091788, 0.0 ], [ -118.000793553082502, 56.407429419089262, 0.0 ], [ -118.000799137640698, 56.403824305091632, 0.0 ], [ -118.000804752825601, 56.400219173515367, 0.0 ], [ -118.000810326361005, 56.396613168202997, 0.0 ], [ -118.000815917651806, 56.39300714652201, 0.0 ], [ -118.0008161971612, 56.392826681460868, 0.0 ], [ -118.000817963294296, 56.389219763381121, 0.0 ], [ -118.000819755785898, 56.38561282603554, 0.0 ], [ -118.000823403211101, 56.382004986112889, 0.0 ], [ -118.000827078824898, 56.378397134068379, 0.0 ], [ -118.000823157506304, 56.374790194701809, 0.0 ], [ -118.000819242526504, 56.371183256352367, 0.0 ], [ -118.000807730323999, 56.36757541868387, 0.0 ], [ -118.000796247135995, 56.363967584198491, 0.0 ], [ -118.000795674254306, 56.36378711848301, 0.0 ], [ -118.000793596648705, 56.360181978995861, 0.0 ], [ -118.000791534441404, 56.356576836705777, 0.0 ], [ -118.000789459954305, 56.352970783112532, 0.0 ], [ -118.000787386392901, 56.349364727965373, 0.0 ], [ -118.000785295395701, 56.3457595916719, 0.0 ], [ -118.000783220990996, 56.34215444715052, 0.0 ], [ -118.000783008714507, 56.338549291941483, 0.0 ], [ -118.000782804737199, 56.334944130499132, 0.0 ], [ -118.000782792905298, 56.334763670357923, 0.0 ], [ -118.000779891480406, 56.331150425195908, 0.0 ], [ -118.000777010437005, 56.327537176205233, 0.0 ], [ -118.000774070194595, 56.323923919919046, 0.0 ], [ -118.000771135873094, 56.320310661053888, 0.0 ], [ -118.000768188936405, 56.316697410850423, 0.0 ], [ -118.000765259855996, 56.313084145188533, 0.0 ], [ -118.000762289450506, 56.309470893380627, 0.0 ], [ -118.000759343574302, 56.305857628650173, 0.0 ], [ -118.000759189222194, 56.305677165050533, 0.0 ], [ -118.000756226516401, 56.30206388832346, 0.0 ], [ -118.000753266580801, 56.298450609992592, 0.0 ], [ -118.000750281346697, 56.294837343328467, 0.0 ], [ -118.000747303660205, 56.291224074045317, 0.0 ], [ -118.000744279283197, 56.287610811551993, 0.0 ], [ -118.000741283857394, 56.283997530632547, 0.0 ], [ -118.000738256277202, 56.280384256150349, 0.0 ], [ -118.000735250844897, 56.276770979593962, 0.0 ], [ -118.000735094489002, 56.276590508230832, 0.0 ], [ -118.0007241067281, 56.272976079256878, 0.0 ], [ -118.000713121090698, 56.26936164151833, 0.0 ], [ -118.000702125728694, 56.265747208791822, 0.0 ], [ -118.000691151635607, 56.262132764138137, 0.0 ], [ -118.000695927366607, 56.258518822538662, 0.0 ], [ -118.000700697691698, 56.254904875915237, 0.0 ], [ -118.000705517572499, 56.251290924732757, 0.0 ], [ -118.000710338139797, 56.247676963881823, 0.0 ], [ -118.000710575194304, 56.247496501238928, 0.0 ], [ -118.0007115184534, 56.245684825524897, 0.0 ], [ -118.000712464495706, 56.24388299028638, 0.0 ], [ -118.000712573048105, 56.243679356870473, 0.0 ], [ -118.000714370314697, 56.240269479181137, 0.0 ], [ -118.000716259360402, 56.236655955241702, 0.0 ], [ -118.000718164712296, 56.233042428456628, 0.0 ], [ -118.000720068153697, 56.229428913656577, 0.0 ], [ -118.000721985584505, 56.225815387074057, 0.0 ], [ -118.000723890245396, 56.222201857451992, 0.0 ], [ -118.000725820592805, 56.218588321158997, 0.0 ], [ -118.000725916280601, 56.218407849632342, 0.0 ], [ -118.000727283830003, 56.215625124871337, 0.0 ], [ -118.000727694747397, 56.214792750627822, 0.0 ], [ -118.000729475474401, 56.211177654512753, 0.0 ], [ -118.000731248101602, 56.207563935659998, 0.0 ], [ -118.000733029705003, 56.203950223131919, 0.0 ], [ -118.000733767574303, 56.202473702056473, 0.0 ], [ -118.000734519188896, 56.200961286835472, 0.0 ], [ -118.000734831348794, 56.20033465601859, 0.0 ], [ -118.000736641975706, 56.196719095227927, 0.0 ], [ -118.000738435405793, 56.193103535999832, 0.0 ], [ -118.000740251467306, 56.189487971971182, 0.0 ], [ -118.000740336750496, 56.189307492878967, 0.0 ], [ -118.000742131158702, 56.18569192774558, 0.0 ], [ -118.000743948406495, 56.182076360504283, 0.0 ], [ -118.000745759939704, 56.178460776560428, 0.0 ], [ -118.000747602145097, 56.174845208304049, 0.0 ], [ -118.000749416319707, 56.171229626584953, 0.0 ], [ -118.000751254166701, 56.16761405352878, 0.0 ], [ -118.000753040559601, 56.163998455887977, 0.0 ], [ -118.000754825696504, 56.160429349589123, 0.0 ], [ -118.000754846290505, 56.160382852626533, 0.0 ], [ -118.000755419907094, 56.160203119154097, 0.0 ], [ -118.000755448834795, 56.160156646268831, 0.0 ], [ -118.000755801003507, 56.15899276647901, 0.0 ], [ -118.053209482573806, 56.160092680469198, 0.0 ], [ -118.428311891228006, 56.158747246135363, 0.0 ], [ -118.781620972663802, 56.160794175539493, 0.0 ], [ -118.784186096997104, 56.130575478515361, 0.0 ], [ -118.903602960410794, 56.127958122906328, 0.0 ], [ -118.9001039375012, 56.126062482518471, 0.0 ], [ -118.898371188073398, 56.124520320923089, 0.0 ], [ -118.893756148046705, 56.120412152568647, 0.0 ], [ -118.892015692291295, 56.118504425480772, 0.0 ], [ -118.887198255677305, 56.111996789131062, 0.0 ], [ -118.887186927642404, 56.11198148373412, 0.0 ], [ -118.887137058005493, 56.111735687324114, 0.0 ], [ -118.885963925610199, 56.105952484097912, 0.0 ], [ -118.887678924331595, 56.099151482676241, 0.0 ], [ -118.891276825898103, 56.094474706903952, 0.0 ], [ -118.892466921947005, 56.092927482297767, 0.0 ], [ -118.898628923016503, 56.088342481020362, 0.0 ], [ -118.911945921254201, 56.081244478758968, 0.0 ], [ -118.928345788518897, 56.07269387832487, 0.0 ], [ -118.9289409216275, 56.072383476044728, 0.0 ], [ -118.931557265621905, 56.066438341978809, 0.0 ], [ -118.932476806682203, 56.064646824075623, 0.0 ], [ -118.932052311996799, 56.061850813709903, 0.0 ], [ -118.931328914577506, 56.054903475474873, 0.0 ], [ -118.930950680477096, 56.054592546384903, 0.0 ], [ -118.927561505528502, 56.05180618019611, 0.0 ], [ -118.923622910276805, 56.048567476223283, 0.0 ], [ -118.916932906428698, 56.043842476972763, 0.0 ], [ -118.914399243824505, 56.04358677685326, 0.0 ], [ -118.913474906803003, 56.043493477309369, 0.0 ], [ -118.9120073649609, 56.04254169174628, 0.0 ], [ -118.905172857614502, 56.038108256303332, 0.0 ], [ -118.900598634850496, 56.034709208535297, 0.0 ], [ -118.8974628717597, 56.032995432861988, 0.0 ], [ -118.895844897809496, 56.031891479081921, 0.0 ], [ -118.889572880925201, 56.030234281418849, 0.0 ], [ -118.8868718946906, 56.029520480176693, 0.0 ], [ -118.878991004571105, 56.029050386018632, 0.0 ], [ -118.874419892190204, 56.028777482110563, 0.0 ], [ -118.872065367914004, 56.028861855768113, 0.0 ], [ -118.866321890883498, 56.029067482816536, 0.0 ], [ -118.856196888325798, 56.028468484259719, 0.0 ], [ -118.849228079444799, 56.026650049132563, 0.0 ], [ -118.842588314980205, 56.024916941883752, 0.0 ], [ -118.840862883739305, 56.024466486341247, 0.0 ], [ -118.838522447167506, 56.023297559099653, 0.0 ], [ -118.834273645676006, 56.021175202329793, 0.0 ], [ -118.831048790221701, 56.018612250683468, 0.0 ], [ -118.826022877352003, 56.014617043085828, 0.0 ], [ -118.825893229382402, 56.014305938476546, 0.0 ], [ -118.825334875129002, 56.013839487236133, 0.0 ], [ -118.821616388198294, 56.00404018553624, 0.0 ], [ -118.820301735508906, 56.000883416690371, 0.0 ], [ -118.814344073353595, 55.980980694269718, 0.0 ], [ -118.812000241169599, 55.974678099848553, 0.0 ], [ -118.810818854447007, 55.971500488031403, 0.0 ], [ -118.803772848782998, 55.959728489089173, 0.0 ], [ -118.800617151275205, 55.956175214808127, 0.0 ], [ -118.798303017489303, 55.952910811032119, 0.0 ], [ -118.794866344521196, 55.950972344459608, 0.0 ], [ -118.788500839149407, 55.946937490261327, 0.0 ], [ -118.786117658753597, 55.946036287618313, 0.0 ], [ -118.785555637480599, 55.945719126702272, 0.0 ], [ -118.782915555338406, 55.944825267815247, 0.0 ], [ -118.777398835476603, 55.942738492178371, 0.0 ], [ -118.765477831460203, 55.941056492756559, 0.0 ], [ -118.759187139354594, 55.940657242842143, 0.0 ], [ -118.7424518283661, 55.939593495833122, 0.0 ], [ -118.732994924206906, 55.937934333795887, 0.0 ], [ -118.732146823805195, 55.937785496851873, 0.0 ], [ -118.731777826816497, 55.937810080271582, 0.0 ], [ -118.7249238229696, 55.938266498350757, 0.0 ], [ -118.721069466772903, 55.937087223027639, 0.0 ], [ -118.719831440256996, 55.937011703039971, 0.0 ], [ -118.717570624217899, 55.936016551021588, 0.0 ], [ -118.697097814942893, 55.929748501349508, 0.0 ], [ -118.680641808818706, 55.92754950307377, 0.0 ], [ -118.668910806755093, 55.92765450534003, 0.0 ], [ -118.656868410396399, 55.927989192699172, 0.0 ], [ -118.652095803331605, 55.928121507255447, 0.0 ], [ -118.645100323486602, 55.926995857334312, 0.0 ], [ -118.639674799986395, 55.926122508974842, 0.0 ], [ -118.634585444248202, 55.924443623706047, 0.0 ], [ -118.626317796884706, 55.921715510581457, 0.0 ], [ -118.622412721023807, 55.920914180199851, 0.0 ], [ -118.6181504675789, 55.919645462835142, 0.0 ], [ -118.6131989121792, 55.919022857006247, 0.0 ], [ -118.6107377906838, 55.918517512341872, 0.0 ], [ -118.607532275329007, 55.918310066955527, 0.0 ], [ -118.595922811748807, 55.917558039432564, 0.0 ], [ -118.593184787591596, 55.917380514060874, 0.0 ], [ -118.591579757547095, 55.917544211731609, 0.0 ], [ -118.582624288138504, 55.918457175140112, 0.0 ], [ -118.572204783908802, 55.919518517108457, 0.0 ], [ -118.558462781993001, 55.922266519326278, 0.0 ], [ -118.545163690415507, 55.921893163967042, 0.0 ], [ -118.544358778267707, 55.921870520404212, 0.0 ], [ -118.544272111478307, 55.921849306010273, 0.0 ], [ -118.538043965118703, 55.920324573021936, 0.0 ], [ -118.532526776146796, 55.918973523117977, 0.0 ], [ -118.531393107811496, 55.918535217047229, 0.0 ], [ -118.530792385188306, 55.918373571413689, 0.0 ], [ -118.519511191372104, 55.914311947519302, 0.0 ], [ -118.509416508511606, 55.909191058677443, 0.0 ], [ -118.503736778821903, 55.90610257360612, 0.0 ], [ -118.5014090877212, 55.904836616149588, 0.0 ], [ -118.500725656045205, 55.904741309358108, 0.0 ], [ -118.491884424402301, 55.903507982051487, 0.0 ], [ -118.486331639939493, 55.901948831113202, 0.0 ], [ -118.456041750486406, 55.897981531606398, 0.0 ], [ -118.4317957464323, 55.900108535071567, 0.0 ], [ -118.402300742869102, 55.903443539455402, 0.0 ], [ -118.4003242178172, 55.903594948269287, 0.0 ], [ -118.395162770696601, 55.903990177687113, 0.0 ], [ -118.391329738904403, 55.904283541050773, 0.0 ], [ -118.3881569684863, 55.904132265170652, 0.0 ], [ -118.374620986408104, 55.903485941241243, 0.0 ], [ -118.373587736114999, 55.903436542967519, 0.0 ], [ -118.362233617211899, 55.902379306779594, 0.0 ], [ -118.356312731907593, 55.901827544418182, 0.0 ], [ -118.355610113002399, 55.901894039632353, 0.0 ], [ -118.343181729744998, 55.903069547026057, 0.0 ], [ -118.337526500920902, 55.905281265497649, 0.0 ], [ -118.335538728209897, 55.906058547731142, 0.0 ], [ -118.329637729992498, 55.911022549580217, 0.0 ], [ -118.327879531049405, 55.912414973405411, 0.0 ], [ -118.323194730187197, 55.916124549753683, 0.0 ], [ -118.3157927308757, 55.919416551438303, 0.0 ], [ -118.314260605527494, 55.919704998864987, 0.0 ], [ -118.313614909516204, 55.920011180158042, 0.0 ], [ -118.302764570427499, 55.921866326107818, 0.0 ], [ -118.288708109435703, 55.918379359507739, 0.0 ], [ -118.275766590462098, 55.911770418067213, 0.0 ], [ -118.263347901118294, 55.911327733676032, 0.0 ], [ -118.241700461327397, 55.91343210761049, 0.0 ], [ -118.241463712528997, 55.91349056020595, 0.0 ], [ -118.228094312655202, 55.916360620613062, 0.0 ], [ -118.221737709722504, 55.91772456305916, 0.0 ], [ -118.197820705650997, 55.920675566490758, 0.0 ], [ -118.189327703652296, 55.92005456767091, 0.0 ], [ -118.181011701276603, 55.919556568325682, 0.0 ], [ -118.175003292833196, 55.918676707649077, 0.0 ], [ -118.161564697507302, 55.916707570145832, 0.0 ], [ -118.1593856474625, 55.916283677806909, 0.0 ], [ -118.146312691230605, 55.913739572813228, 0.0 ], [ -118.142706528584995, 55.913990762337171, 0.0 ], [ -118.137868691986696, 55.914327573716093, 0.0 ], [ -118.130210647563004, 55.91297212581123, 0.0 ], [ -118.129433688220303, 55.912834574437092, 0.0 ], [ -118.117402684654095, 55.912478576389141, 0.0 ], [ -118.093450681538599, 55.913100579488408, 0.0 ], [ -118.089827481570794, 55.913489211227471, 0.0 ], [ -118.085123680289996, 55.913993580171081, 0.0 ], [ -118.071377678117102, 55.914683582647051, 0.0 ], [ -118.070302649644702, 55.914652560229563, 0.0 ], [ -118.069136600321798, 55.914758221998007, 0.0 ], [ -118.056353128746494, 55.914249159522427, 0.0 ], [ -118.0467176722875, 55.913969586144432, 0.0 ], [ -118.041544098333603, 55.913402523151412, 0.0 ], [ -118.033629668521201, 55.912534586757793, 0.0 ], [ -118.021815665090102, 55.910222589324547, 0.0 ], [ -118.017916400388003, 55.909702844124602, 0.0 ], [ -118.0119443316879, 55.908906541308383, 0.0 ], [ -118.010026587556993, 55.908650764760488, 0.0 ], [ -118.009080661295698, 55.908524590311828, 0.0 ], [ -118.000852972350799, 55.909002012551603, 0.0 ], [ -117.998928658206296, 55.909113592166932, 0.0 ], [ -117.991824659468094, 55.910302592677994, 0.0 ], [ -117.978846655635905, 55.911631593977567, 0.0 ], [ -117.967635655521093, 55.91556659580101, 0.0 ], [ -117.953294655229698, 55.922269598861057, 0.0 ], [ -117.938417656498302, 55.92895759991562, 0.0 ], [ -117.926745653683398, 55.931831602166604, 0.0 ], [ -117.916144651953303, 55.932398603455063, 0.0 ], [ -117.898067648729395, 55.933871605841112, 0.0 ], [ -117.878640646023399, 55.937012608299057, 0.0 ], [ -117.868685645977493, 55.941861609602583, 0.0 ], [ -117.862889648189096, 55.948150611205143, 0.0 ], [ -117.857080649322, 55.954589611475761, 0.0 ], [ -117.849935647718098, 55.957411612931352, 0.0 ], [ -117.844631648143903, 55.960575614381369, 0.0 ], [ -117.839892649905707, 55.966889614796152, 0.0 ], [ -117.832898651016393, 55.971208615891364, 0.0 ], [ -117.812493650346795, 55.979848619078403, 0.0 ], [ -117.8003346501594, 55.985243621326177, 0.0 ], [ -117.784221648572895, 55.991247622694772, 0.0 ], [ -117.771869650059898, 55.999169625142521, 0.0 ], [ -117.758447650281198, 56.008273626666373, 0.0 ], [ -117.747769651043896, 56.017416629215973, 0.0 ], [ -117.737311650943099, 56.021348630294199, 0.0 ], [ -117.729668651465602, 56.023406631569067, 0.0 ], [ -117.722911649393396, 56.024261631796477, 0.0 ], [ -117.713971647245899, 56.025478633543727, 0.0 ], [ -117.692974641759093, 56.02431263639339, 0.0 ], [ -117.673819640846105, 56.028091639349363, 0.0 ], [ -117.664247638311906, 56.028982639828811, 0.0 ], [ -117.654817638364904, 56.031896641717353, 0.0 ], [ -117.647029638102296, 56.037619642497091, 0.0 ], [ -117.644190638937602, 56.043076643622889, 0.0 ], [ -117.645217641651001, 56.046985643107227, 0.0 ], [ -117.643990642993202, 56.052333643355581, 0.0 ], [ -117.639885644599502, 56.056862645070801, 0.0 ], [ -117.631309644740099, 56.060385645285614, 0.0 ], [ -117.616461644390995, 56.069161647385272, 0.0 ], [ -117.605049644611896, 56.07407664935338, 0.0 ], [ -117.595992643992005, 56.078387651635282, 0.0 ], [ -117.586007643538494, 56.082320652170488, 0.0 ], [ -117.576355645315601, 56.087103653689553, 0.0 ], [ -117.565570643897402, 56.093799655947024, 0.0 ], [ -117.549801641091307, 56.096684657382973, 0.0 ], [ -117.537846641188807, 56.098770659633843, 0.0 ], [ -117.531796639420406, 56.097420660384152, 0.0 ], [ -117.516923635738294, 56.099129662683723, 0.0 ], [ -117.505362635524904, 56.102866664260162, 0.0 ], [ -117.495096635405005, 56.107083665307371, 0.0 ], [ -117.483178636485206, 56.114993666753307, 0.0 ], [ -117.474635637257705, 56.12439766882985, 0.0 ], [ -117.466247642756102, 56.138072670565627, 0.0 ], [ -117.454966641559196, 56.144649672263448, 0.0 ], [ -117.440782640788697, 56.149872673678217, 0.0 ], [ -117.431927639668899, 56.153095675214857, 0.0 ], [ -117.411196639144407, 56.157692678374801, 0.0 ], [ -117.395756635525302, 56.162329680207272, 0.0 ], [ -117.373452634963499, 56.169540683303389, 0.0 ], [ -117.359377632529103, 56.173308686026367, 0.0 ], [ -117.354543633697205, 56.173328686109699, 0.0 ], [ -117.348415633406901, 56.175853687764409, 0.0 ], [ -117.342876548053795, 56.176368740265467, 0.0 ], [ -117.342188631138598, 56.17643268766605, 0.0 ], [ -117.335283628095098, 56.172509688881348, 0.0 ], [ -117.336590627429104, 56.169854687816603, 0.0 ], [ -117.339759626013503, 56.167399687515349, 0.0 ], [ -117.345018627952797, 56.165599686897018, 0.0 ], [ -117.350829627667906, 56.160855686081327, 0.0 ], [ -117.360486628258101, 56.157499684696013, 0.0 ], [ -117.364735626469596, 56.154924683913322, 0.0 ], [ -117.366743626082894, 56.150346683965793, 0.0 ], [ -117.370748626356601, 56.147465682667232, 0.0 ], [ -117.377365626330104, 56.145402681463061, 0.0 ], [ -117.380350624551397, 56.141896681479672, 0.0 ], [ -117.378086621737296, 56.137054681979812, 0.0 ], [ -117.378817620290604, 56.131695681241013, 0.0 ], [ -117.384751618105398, 56.124802680335122, 0.0 ], [ -117.389768616877603, 56.11659867945901, 0.0 ], [ -117.387975613312705, 56.112515679375498, 0.0 ], [ -117.390713615793402, 56.111841679340948, 0.0 ], [ -117.396850616358606, 56.112155677554242, 0.0 ], [ -117.404158616729703, 56.111304676702233, 0.0 ], [ -117.414980618687295, 56.110098676071637, 0.0 ], [ -117.419668616707, 56.103451675298913, 0.0 ], [ -117.424179618278899, 56.100913673711297, 0.0 ], [ -117.4335536175345, 56.098864673155312, 0.0 ], [ -117.438603619265606, 56.096159672618903, 0.0 ], [ -117.440712616337294, 56.090238671864491, 0.0 ], [ -117.444284615730396, 56.086000671416613, 0.0 ], [ -117.449269616043097, 56.084040669966178, 0.0 ], [ -117.455999617650903, 56.083619668988518, 0.0 ], [ -117.459622616695896, 56.081921668351612, 0.0 ], [ -117.459628614063703, 56.07549766846936, 0.0 ], [ -117.460847613203796, 56.073736668636073, 0.0 ], [ -117.461044612033007, 56.068213668122738, 0.0 ], [ -117.461954608651396, 56.063755667290131, 0.0 ], [ -117.461759608026796, 56.059716667676682, 0.0 ], [ -117.467283606651804, 56.054481666599578, 0.0 ], [ -117.476456607020907, 56.050387665025447, 0.0 ], [ -117.483429607515802, 56.046982664414948, 0.0 ], [ -117.4886426076568, 56.042659663050507, 0.0 ], [ -117.490386604894098, 56.037774663376481, 0.0 ], [ -117.491708602794901, 56.03153466222652, 0.0 ], [ -117.496479601839297, 56.028819662125692, 0.0 ], [ -117.5035816028184, 56.023774660439862, 0.0 ], [ -117.507395602292704, 56.019690659775883, 0.0 ], [ -117.510891601596498, 56.016195659476509, 0.0 ], [ -117.510872598979503, 56.013207659397267, 0.0 ], [ -117.513735270030097, 56.009855304361018, 0.0 ], [ -117.518860596010995, 56.003851658193682, 0.0 ], [ -117.524188594943496, 55.997563656552742, 0.0 ], [ -117.521018593589403, 55.993896657035862, 0.0 ], [ -117.531277850877203, 55.985214267939817, 0.0 ], [ -117.447559153564598, 55.985334326567717, 0.0 ], [ -117.374572502181906, 55.985392434066632, 0.0 ], [ -117.291075820407102, 55.985405723487297, 0.0 ], [ -117.291075931566795, 55.985354217738347, 0.0 ], [ -117.291075946820001, 55.985347616078471, 0.0 ], [ -117.291076101974298, 55.985168421160438, 0.0 ], [ -117.289944450454698, 55.985168551934798, 0.0 ], [ -117.289944512690099, 55.985117115442947, 0.0 ], [ -117.289944521356901, 55.985110507613477, 0.0 ], [ -117.289944325392298, 55.981497440123483, 0.0 ], [ -117.2899441265359, 55.977884357407227, 0.0 ], [ -117.289943941655807, 55.974271273537241, 0.0 ], [ -117.289943783401895, 55.97065818558081, 0.0 ], [ -117.289943598063402, 55.967045107123873, 0.0 ], [ -117.289943412560703, 55.963432005297449, 0.0 ], [ -117.289943224160794, 55.959818915218221, 0.0 ], [ -117.289943041356807, 55.956205817846516, 0.0 ], [ -117.289943027332598, 55.95602515623321, 0.0 ], [ -117.289942859326601, 55.952412063896013, 0.0 ], [ -117.289942693765198, 55.948798965223823, 0.0 ], [ -117.289942511814004, 55.945185866860619, 0.0 ], [ -117.289942332470304, 55.941572764856637, 0.0 ], [ -117.289942152745894, 55.93795966286384, 0.0 ], [ -117.289941970670796, 55.934346554624867, 0.0 ], [ -117.289941797074704, 55.93073343364432, 0.0 ], [ -117.289941625706106, 55.927120329709687, 0.0 ], [ -117.289941626392405, 55.926939664403299, 0.0 ], [ -117.289941470672005, 55.923326552898587, 0.0 ], [ -117.289941293354502, 55.919713434606081, 0.0 ], [ -117.289940982952899, 55.916100373639587, 0.0 ], [ -117.289940700508694, 55.912487304064612, 0.0 ], [ -117.2899402839667, 55.908874273852177, 0.0 ], [ -117.289939908083198, 55.905261232996772, 0.0 ], [ -117.289939510064698, 55.901648202447262, 0.0 ], [ -117.289939129140606, 55.898035168885912, 0.0 ], [ -117.289939104718599, 55.897854503324162, 0.0 ], [ -117.289939047703101, 55.894241859270082, 0.0 ], [ -117.289938991785604, 55.890629213400473, 0.0 ], [ -117.289938910417305, 55.887016087868403, 0.0 ], [ -117.289938839320001, 55.883402953156398, 0.0 ], [ -117.289938748292201, 55.879789812523761, 0.0 ], [ -117.289938695278806, 55.876176672085187, 0.0 ], [ -117.289938638100594, 55.872563521835872, 0.0 ], [ -117.289938580324304, 55.868950368003247, 0.0 ], [ -117.289938572409, 55.868769702310708, 0.0 ], [ -117.289938501955206, 55.865156603473828, 0.0 ], [ -117.289938448527906, 55.861543501624631, 0.0 ], [ -117.2899383913105, 55.857930396251326, 0.0 ], [ -117.289938336903504, 55.854317290827559, 0.0 ], [ -117.289938270778805, 55.850704182926222, 0.0 ], [ -117.289938234395706, 55.847091070876267, 0.0 ], [ -117.289938151441007, 55.843477961493242, 0.0 ], [ -117.289938105574095, 55.839864837034867, 0.0 ], [ -117.289938099724907, 55.839684170580767, 0.0 ], [ -117.289938082841999, 55.836070994243038, 0.0 ], [ -117.289938068343304, 55.83245781066892, 0.0 ], [ -117.289938993637307, 55.828844397396843, 0.0 ], [ -117.289939924545706, 55.825230980422617, 0.0 ], [ -117.289939530544601, 55.821616280765532, 0.0 ], [ -117.289939121776698, 55.818001579585207, 0.0 ], [ -117.289937705428599, 55.814339180395187, 0.0 ], [ -117.289936382215203, 55.810918307230168, 0.0 ], [ -117.289936288579796, 55.810676770378713, 0.0 ], [ -117.289936217679397, 55.810504283945477, 0.0 ], [ -117.260592418966695, 55.810492196956098, 0.0 ], [ -117.133187989173706, 55.810509696134432, 0.0 ], [ -117.131228664046404, 55.810508931750419, 0.0 ], [ -117.037782554607702, 55.810527690510852, 0.0 ], [ -117.012697872141999, 55.810527060134447, 0.0 ], [ -116.960601414196304, 55.810509351088747, 0.0 ], [ -116.956914518635102, 55.810504874811208, 0.0 ], [ -116.956756063298599, 55.810504681437557, 0.0 ], [ -116.950484427493393, 55.810496810743743, 0.0 ], [ -116.950360664585702, 55.810496653967469, 0.0 ], [ -116.9501636112754, 55.810496820697168, 0.0 ], [ -116.950039834181197, 55.810496922756087, 0.0 ], [ -116.943728223805707, 55.810502016451998, 0.0 ], [ -116.943646626570498, 55.81050208540789, 0.0 ], [ -116.937292856216203, 55.810506886627607, 0.0 ], [ -116.937253422429293, 55.810506915453693, 0.0 ], [ -116.930866742982204, 55.810511427368269, 0.0 ], [ -116.924480050799801, 55.81051559682588, 0.0 ], [ -116.924434807057395, 55.810515622568261, 0.0 ], [ -116.924159215387405, 55.810515799035343, 0.0 ], [ -116.917772549117203, 55.810519622248577, 0.0 ], [ -116.917685361671403, 55.810519670354743, 0.0 ], [ -116.911385896666403, 55.810523117881473, 0.0 ], [ -116.911256712892595, 55.81052318761153, 0.0 ], [ -116.904999202900299, 55.81052629848076, 0.0 ], [ -116.904828008020999, 55.810526379391483, 0.0 ], [ -116.898612524283394, 55.81052914069393, 0.0 ], [ -116.898399279814896, 55.810529227201251, 0.0 ], [ -116.898291704843501, 55.81052927873165, 0.0 ], [ -116.898078457389005, 55.810529369223779, 0.0 ], [ -116.8919050357879, 55.810531755191043, 0.0 ], [ -116.891649909732493, 55.810531852246697, 0.0 ], [ -116.885518372388503, 55.810533922189272, 0.0 ], [ -116.885221356200702, 55.810534016224729, 0.0 ], [ -116.879131671989796, 55.810535753409653, 0.0 ], [ -116.878792808818801, 55.810535842994398, 0.0 ], [ -116.872744958916698, 55.810537253872781, 0.0 ], [ -116.872424139342598, 55.810537322598293, 0.0 ], [ -116.872364253451593, 55.810537334572572, 0.0 ], [ -116.872043428981598, 55.810537400580849, 0.0 ], [ -116.866037484659401, 55.810538464667047, 0.0 ], [ -116.865614944671293, 55.810538529100903, 0.0 ], [ -116.8596508457819, 55.81053926476757, 0.0 ], [ -116.859186436233003, 55.810539312794823, 0.0 ], [ -116.853260128033995, 55.810539763042918, 0.0 ], [ -116.852754026136793, 55.810539792106781, 0.0 ], [ -116.846869392056604, 55.81053993652737, 0.0 ], [ -116.846548566418605, 55.810539808345169, 0.0 ], [ -116.846321614337896, 55.81053971996414, 0.0 ], [ -116.846000783971107, 55.810539592221403, 0.0 ], [ -116.840156940839705, 55.810537047045372, 0.0 ], [ -116.839568235765597, 55.810536775449457, 0.0 ], [ -116.833765301210903, 55.810533958110511, 0.0 ], [ -116.833135703120206, 55.81053374860295, 0.0 ], [ -116.827377458828593, 55.810531739074548, 0.0 ], [ -116.826706600386501, 55.81053148498075, 0.0 ], [ -116.820989617642098, 55.8105291799844, 0.0 ], [ -116.820668796143494, 55.810529134338033, 0.0 ], [ -116.820277485166798, 55.810529064207337, 0.0 ], [ -116.819956642763501, 55.810529014314618, 0.0 ], [ -116.814285567190296, 55.810527978253781, 0.0 ], [ -116.813496683506898, 55.810527811140183, 0.0 ], [ -116.807902344351604, 55.810526491513208, 0.0 ], [ -116.807036720611094, 55.810526682098711, 0.0 ], [ -116.8015097972158, 55.810527774073527, 0.0 ], [ -116.800575010225899, 55.810527935402497, 0.0 ], [ -116.795117232964699, 55.810528722648357, 0.0 ], [ -116.794796413754796, 55.810528932201677, 0.0 ], [ -116.794113265241705, 55.810529372785503, 0.0 ], [ -116.793792439377, 55.810529575320388, 0.0 ], [ -116.788415482419794, 55.810532917279573, 0.0 ], [ -116.787332319843699, 55.810533552631419, 0.0 ], [ -116.782034538846801, 55.810536554218849, 0.0 ], [ -116.780872210678396, 55.810537183093913, 0.0 ], [ -116.775653592300699, 55.810539868059429, 0.0 ], [ -116.7744120740592, 55.810540474450043, 0.0 ], [ -116.769272647126499, 55.810542846154057, 0.0 ], [ -116.768951823069401, 55.810542988325267, 0.0 ], [ -116.767951930417397, 55.81054341651474, 0.0 ], [ -116.7676311012886, 55.810543550816718, 0.0 ], [ -116.762570875819904, 55.810545614072311, 0.0 ], [ -116.761171158637396, 55.810546142631281, 0.0 ], [ -116.756189933613697, 55.810547908521073, 0.0 ], [ -116.754711189764194, 55.81054841332309, 0.0 ], [ -116.749808955118795, 55.810549908224147, 0.0 ], [ -116.748251182824504, 55.810550345078099, 0.0 ], [ -116.743427960859407, 55.810551569733477, 0.0 ], [ -116.743107138205701, 55.810551639039353, 0.0 ], [ -116.741791170307593, 55.810551947321812, 0.0 ], [ -116.741470353982095, 55.810552013165378, 0.0 ], [ -116.736726144949898, 55.810552968839517, 0.0 ], [ -116.735009949503194, 55.810553273592923, 0.0 ], [ -116.730345168192301, 55.810553961791392, 0.0 ], [ -116.728549554359304, 55.810554174593797, 0.0 ], [ -116.723964184056896, 55.810554616436491, 0.0 ], [ -116.722089181176798, 55.81055474566314, 0.0 ], [ -116.717583194751199, 55.810554943533447, 0.0 ], [ -116.717262373104504, 55.810555037077151, 0.0 ], [ -116.715628796275993, 55.810555560857892, 0.0 ], [ -116.715307968568595, 55.810555659274939, 0.0 ], [ -116.710879966819704, 55.810556941964208, 0.0 ], [ -116.708845849155495, 55.810557474565847, 0.0 ], [ -116.704497562351705, 55.810558504673438, 0.0 ], [ -116.702383751618996, 55.810558597442487, 0.0 ], [ -116.698112228007702, 55.810558683263849, 0.0 ], [ -116.695917260732301, 55.810558668959857, 0.0 ], [ -116.691726879282797, 55.810558536683928, 0.0 ], [ -116.691406050264305, 55.810558168178417, 0.0 ], [ -116.689450763361094, 55.810555902028547, 0.0 ], [ -116.689129934189296, 55.810555525787322, 0.0 ], [ -116.685015204513505, 55.810550656190891, 0.0 ], [ -116.682679311774294, 55.810547832433578, 0.0 ], [ -116.678624346940595, 55.810542818445121, 0.0 ], [ -116.676228630099402, 55.810541861094947, 0.0 ], [ -116.672242932812793, 55.810540145252368, 0.0 ], [ -116.669759333667201, 55.810539021661313, 0.0 ], [ -116.6658615054195, 55.81053714908856, 0.0 ], [ -116.665540687753193, 55.810537373711917, 0.0 ], [ -116.663289968358399, 55.810538890414612, 0.0 ], [ -116.663289733945106, 55.810723680245431, 0.0 ], [ -116.663284645948394, 55.81443982333527, 0.0 ], [ -116.663279565404906, 55.818155960649911, 0.0 ], [ -116.663270330788706, 55.82176670961708, 0.0 ], [ -116.663261100361495, 55.825377440377082, 0.0 ], [ -116.663254039904004, 55.828985831145118, 0.0 ], [ -116.663247003494405, 55.83259421063557, 0.0 ], [ -116.663241931749397, 55.836202569690933, 0.0 ], [ -116.663236874996699, 55.839810921190363, 0.0 ], [ -116.663236874080098, 55.839991583256911, 0.0 ], [ -116.663236959516794, 55.84359965191058, 0.0 ], [ -116.663237048509004, 55.847207722160803, 0.0 ], [ -116.663236725684996, 55.850815647689011, 0.0 ], [ -116.663236399796901, 55.854423571307017, 0.0 ], [ -116.663236274178601, 55.858031575672882, 0.0 ], [ -116.663236164050403, 55.861639562594817, 0.0 ], [ -116.663233845371806, 55.86524808805509, 0.0 ], [ -116.663231527705705, 55.868856603455903, 0.0 ], [ -116.663231292919093, 55.869037267896402, 0.0 ], [ -116.663226770429404, 55.872646309093803, 0.0 ], [ -116.663222260307904, 55.876255353560033, 0.0 ], [ -116.6632177108322, 55.879864388508892, 0.0 ], [ -116.663213183196802, 55.883473423901762, 0.0 ], [ -116.663208642158807, 55.887082458416813, 0.0 ], [ -116.663204116147099, 55.89069148357904, 0.0 ], [ -116.663199580119397, 55.894300512312981, 0.0 ], [ -116.663195050063806, 55.897909544402722, 0.0 ], [ -116.663195107785299, 55.897937104561457, 0.0 ], [ -116.506685333854307, 55.897949783968627, 0.0 ], [ -116.506685318039501, 55.898034157446133, 0.0 ], [ -116.506668370642601, 55.985230405512738, 0.0 ], [ -116.506431648071597, 55.985230536826073, 0.0 ], [ -116.506270551016598, 55.985230626460456, 0.0 ], [ -116.504252925122998, 55.98523166000097, 0.0 ], [ -116.465009279484704, 55.985247198978669, 0.0 ], [ -116.354295671526998, 55.985223701543973, 0.0 ], [ -116.350123556263796, 55.98522101766391, 0.0 ], [ -116.349801291475202, 55.985221206918929, 0.0 ], [ -116.349640166209795, 55.985221298905053, 0.0 ], [ -116.346194846210096, 55.98522327128164, 0.0 ], [ -116.195740403157799, 55.985312316952012, 0.0 ], [ -116.166968483858099, 55.98530843267136, 0.0 ], [ -116.039259688752395, 55.985210145467953, 0.0 ], [ -116.036719267109902, 55.985206848198558, 0.0 ], [ -116.036704332267604, 56.07228167405524, 0.0 ], [ -116.029714092788595, 56.072283148526758, 0.0 ], [ -115.893457270103596, 56.072232654889277, 0.0 ], [ -115.8826945613378, 56.072222242739528, 0.0 ], [ -115.882578021178304, 56.072222124963538, 0.0 ], [ -115.868883074997697, 56.072476130284286, 0.0 ], [ -115.716413763888596, 56.075201228633397, 0.0 ], [ -115.7234488176653, 55.956733762022907, 0.0 ], [ -115.7234435230082, 55.901974144404129, 0.0 ], [ -115.7234431606078, 55.897949884227792, 0.0 ], [ -115.257354812858296, 55.897958502246617, 0.0 ], [ -115.253698944952006, 55.854866116542837, 0.0 ], [ -115.253512019792197, 55.81050593922118, 0.0 ], [ -115.249943942885196, 55.810503493910112, 0.0 ], [ -115.243665017339197, 55.810498940101333, 0.0 ], [ -115.243659075903807, 55.736020940607787, 0.0 ], [ -115.235402922803502, 55.63773419909883, 0.0 ], [ -115.062472957980503, 55.635806779760799, 0.0 ], [ -114.930552272891603, 55.634172420515057, 0.0 ], [ -114.932890922704303, 55.740402830880619, 0.0 ], [ -114.932899069583797, 55.810404759468561, 0.0 ], [ -114.934855187107203, 55.829190081587193, 0.0 ], [ -114.970667899613602, 57.380338999759758, 0.0 ] ] ] ] } }
]
}
